QIANFAN-25              
1 61558U 24185G   25298.46636443  .00000724  00000+0  43475-3 0  9995
2 61558  88.9773  83.6455 0010658  95.6226 264.6172 14.05839839 62725
QIANFAN-26              
1 61559U 24185H   25298.45348389  .00000430  00000+0  41741-3 0  9992
2 61559  88.9771  84.9560 0006724 144.1126 216.0493 13.77771550 62026
QIANFAN-27              
1 61560U 24185J   25298.44427372  .00000972  00000+0  39180-3 0  9998
2 61560  88.9769  82.5994 0010072  89.4274 270.8074 14.27240667 63273
QIANFAN-28              
1 61561U 24185K   25298.44916186  .00001474  00000+0  59002-3 0  9998
2 61561  88.9786  82.5980 0009228  89.5344 270.6908 14.27880744 63289
QIANFAN-29              
1 61562U 24185L   25298.44972448  .00000260  00000+0  38445-3 0  9992
2 61562  88.9747  86.2947 0010079 181.2938 178.8189 13.50986228 61272
QIANFAN-30              
1 61563U 24185M   25298.46215998  .00000218  00000+0  32492-3 0  9994
2 61563  88.9767  85.8002 0008048 163.6667 196.4744 13.49963075 61555
QIANFAN-31              
1 61564U 24185N   25298.49287247  .00000276  00000+0  36573-3 0  9992
2 61564  88.9752  85.6755 0007782 159.1622 200.9851 13.57937350 61611
QIANFAN-32              
1 61565U 24185P   25298.45729149  .00000226  00000+0  33247-3 0  9991
2 61565  88.9810  85.9203 0009016 192.1923 167.9011 13.50714433 61529
